start=new Date('2022-04-01T00:00:00.000Z').valueOf();
sats=[{"ARG_OF_PERICENTER":"34.8500","NORAD_CAT_ID":"50836","ELEMENT_SET_NO":"999","OBJECT_ID":"2022-001AK","FILE":"3381849","RA_OF_ASC_NODE":"159.5045","ECCENTRICITY":"0.00020440","BSTAR":"0.00152150000000","EPHEMERIS_TYPE":"0","PERIAPSIS":"538.345","INCLINATION":"53.2160","COUNTRY_CODE":"US","SEMIMAJOR_AXIS":"6917.894","MEAN_MOTION_DDOT":"0.0000000000000","RCS_SIZE":"LARGE","EPOCH":"2022-03-31T14:00:01.000224","REV_AT_EPOCH":"367","SITE":"AFETR","MEAN_ANOMALY":"17.7932","OBJECT_NAME":"STARLINK-3330","GP_ID":"200147972","APOAPSIS":"541.173","CLASSIFICATION_TYPE":"U","OBJECT_TYPE":"PAYLOAD","MEAN_MOTION":"15.08835409","MEAN_MOTION_DOT":"0.00024007","TIME_SYSTEM":"UTC","REF_FRAME":"TEME","TLE_LINE2":"2 50836  53.2160 159.5045 0002044  34.8500  17.7932 15.08835409  3678","DECAY_DATE":null,"TLE_LINE1":"1 50836U 22001AK  22090.58334491  .00024007  00000-0  15215-2 0  9996","CENTER_NAME":"EARTH","PERIOD":"95.438","LAUNCH_DATE":"2022-01-06","MEAN_ELEMENT_THEORY":"SGP4"},{"BSTAR":"-0.02658900000000","PERIAPSIS":"475.919","EPHEMERIS_TYPE":"0","ECCENTRICITY":"0.00017800","INCLINATION":"53.2175","SEMIMAJOR_AXIS":"6855.274","COUNTRY_CODE":"US","NORAD_CAT_ID":"50837","ARG_OF_PERICENTER":"39.2743","FILE":"3381849","RA_OF_ASC_NODE":"150.4842","ELEMENT_SET_NO":"999","OBJECT_ID":"2022-001AL","SITE":"AFETR","MEAN_ANOMALY":"82.5803","RCS_SIZE":"LARGE","EPOCH":"2022-03-31T14:00:01.000224","MEAN_MOTION_DDOT":"0.0000000000000","REV_AT_EPOCH":"365","MEAN_MOTION":"15.29556415","MEAN_MOTION_DOT":"-0.00712641","TIME_SYSTEM":"UTC","REF_FRAME":"TEME","TLE_LINE2":"2 50837  53.2175 150.4842 0001780  39.2743  82.5803 15.29556415  3659","GP_ID":"200148230","OBJECT_NAME":"STARLINK-3318","CLASSIFICATION_TYPE":"U","OBJECT_TYPE":"PAYLOAD","APOAPSIS":"478.360","CENTER_NAME":"EARTH","LAUNCH_DATE":"2022-01-06","MEAN_ELEMENT_THEORY":"SGP4","PERIOD":"94.145","TLE_LINE1":"1 50837U 22001AL  22090.58334491 -.00712641  00000-0 -26589-1 0  9992","DECAY_DATE":null},{"CLASSIFICATION_TYPE":"U","OBJECT_TYPE":"PAYLOAD","APOAPSIS":"541.365","GP_ID":"200148466","OBJECT_NAME":"STARLINK-3322","MEAN_MOTION_DOT":"0.00026467","REF_FRAME":"TEME","TIME_SYSTEM":"UTC","TLE_LINE2":"2 50838  53.2144 159.5159 0002282  32.6516 199.9971 15.08826616  3604","MEAN_MOTION":"15.08826616","TLE_LINE1":"1 50838U 22001AM  22090.58334491  .00026467  00000-0  16754-2 0  9999","DECAY_DATE":null,"LAUNCH_DATE":"2022-01-06","MEAN_ELEMENT_THEORY":"SGP4","PERIOD":"95.438","CENTER_NAME":"EARTH","FILE":"3381849","RA_OF_ASC_NODE":"159.5159","ELEMENT_SET_NO":"999","OBJECT_ID":"2022-001AM","NORAD_CAT_ID":"50838","ARG_OF_PERICENTER":"32.6516","INCLINATION":"53.2144","SEMIMAJOR_AXIS":"6917.921","COUNTRY_CODE":"US","BSTAR":"0.00167540000000","EPHEMERIS_TYPE":"0","PERIAPSIS":"538.208","ECCENTRICITY":"0.00022820","REV_AT_EPOCH":"360","MEAN_MOTION_DDOT":"0.0000000000000","RCS_SIZE":"LARGE","EPOCH":"2022-03-31T14:00:01.000224","SITE":"AFETR","MEAN_ANOMALY":"199.9971"},{"MEAN_ANOMALY":"146.5028","SITE":"AFETR","REV_AT_EPOCH":"1432","RCS_SIZE":"LARGE","MEAN_MOTION_DDOT":"0.0000000000000","EPOCH":"2022-03-31T22:00:00.999936","SEMIMAJOR_AXIS":"6917.834","COUNTRY_CODE":"US","INCLINATION":"53.2144","ECCENTRICITY":"0.00019770","PERIAPSIS":"538.331","EPHEMERIS_TYPE":"0","BSTAR":"0.00040143000000","OBJECT_ID":"2022-001AN","ELEMENT_SET_NO":"999","RA_OF_ASC_NODE":"158.0235","FILE":"3382283","ARG_OF_PERICENTER":"37.7353","NORAD_CAT_ID":"50839","PERIOD":"95.437","MEAN_ELEMENT_THEORY":"SGP4","LAUNCH_DATE":"2022-01-06","CENTER_NAME":"EARTH","DECAY_DATE":null,"TLE_LINE1":"1 50839U 22001AN  22090.91667824  .00006109  00000-0  40143-3 0  9997","TLE_LINE2":"2 50839  53.2144 158.0235 0001977  37.7353 146.5028 15.08855210 14323","MEAN_MOTION_DOT":"0.00006109","REF_FRAME":"TEME","TIME_SYSTEM":"UTC","MEAN_MOTION":"15.08855210","APOAPSIS":"541.067","OBJECT_TYPE":"PAYLOAD","CLASSIFICATION_TYPE":"U","OBJECT_NAME":"STARLINK-3320","GP_ID":"200159314"},{"INCLINATION":"53.2142","COUNTRY_CODE":"US","SEMIMAJOR_AXIS":"6917.830","BSTAR":"0.00052522000000","PERIAPSIS":"538.256","EPHEMERIS_TYPE":"0","ECCENTRICITY":"0.00020810","RA_OF_ASC_NODE":"158.0225","FILE":"3382283","ELEMENT_SET_NO":"999","OBJECT_ID":"2022-001AP","NORAD_CAT_ID":"50840","ARG_OF_PERICENTER":"41.0906","SITE":"AFETR","MEAN_ANOMALY":"163.1596","REV_AT_EPOCH":"1433","MEAN_MOTION_DDOT":"0.0000000000000","RCS_SIZE":"LARGE","EPOCH":"2022-03-31T22:00:00.999936","MEAN_MOTION_DOT":"0.00008084","REF_FRAME":"TEME","TIME_SYSTEM":"UTC","TLE_LINE2":"2 50840  53.2142 158.0225 0002081  41.0906 163.1596 15.08856363 14337","MEAN_MOTION":"15.08856363","CLASSIFICATION_TYPE":"U","OBJECT_TYPE":"PAYLOAD","APOAPSIS":"541.135","GP_ID":"200159622","OBJECT_NAME":"STARLINK-3295","LAUNCH_DATE":"2022-01-06","MEAN_ELEMENT_THEORY":"SGP4","PERIOD":"95.437","CENTER_NAME":"EARTH","TLE_LINE1":"1 50840U 22001AP  22090.91667824  .00008084  00000-0  52522-3 0  9997","DECAY_DATE":null},{"PERIAPSIS":"538.314","EPHEMERIS_TYPE":"0","BSTAR":"0.00028590000000","ECCENTRICITY":"0.00020660","SEMIMAJOR_AXIS":"6917.879","COUNTRY_CODE":"US","INCLINATION":"53.2147","NORAD_CAT_ID":"50841","ARG_OF_PERICENTER":"34.6334","FILE":"3381849","RA_OF_ASC_NODE":"159.5217","OBJECT_ID":"2022-001AQ","ELEMENT_SET_NO":"999","MEAN_ANOMALY":"98.0200","SITE":"AFETR","MEAN_MOTION_DDOT":"0.0000000000000","RCS_SIZE":"LARGE","EPOCH":"2022-03-31T14:00:01.000224","REV_AT_EPOCH":"361","MEAN_MOTION":"15.08840542","TLE_LINE2":"2 50841  53.2147 159.5217 0002066  34.6334  98.0200 15.08840542  3615","REF_FRAME":"TEME","MEAN_MOTION_DOT":"0.00004265","TIME_SYSTEM":"UTC","GP_ID":"200148724","OBJECT_NAME":"STARLINK-3300","OBJECT_TYPE":"PAYLOAD","CLASSIFICATION_TYPE":"U","APOAPSIS":"541.173","CENTER_NAME":"EARTH","MEAN_ELEMENT_THEORY":"SGP4","LAUNCH_DATE":"2022-01-06","PERIOD":"95.438","TLE_LINE1":"1 50841U 22001AQ  22090.58334491  .00004265  00000-0  28590-3 0  9997","DECAY_DATE":null},{"ELEMENT_SET_NO":"999","OBJECT_ID":"2022-001AR","RA_OF_ASC_NODE":"159.5207","FILE":"3381849","ARG_OF_PERICENTER":"33.7593","NORAD_CAT_ID":"50842","INCLINATION":"53.2143","SEMIMAJOR_AXIS":"6917.901","COUNTRY_CODE":"US","ECCENTRICITY":"0.00021490","BSTAR":"0.00072129000000","EPHEMERIS_TYPE":"0","PERIAPSIS":"538.279","REV_AT_EPOCH":"360","MEAN_MOTION_DDOT":"0.0000000000000","RCS_SIZE":"LARGE","EPOCH":"2022-03-31T14:00:01.000224","SITE":"AFETR","MEAN_ANOMALY":"178.8953","APOAPSIS":"541.252","CLASSIFICATION_TYPE":"U","OBJECT_TYPE":"PAYLOAD","OBJECT_NAME":"STARLINK-3302","GP_ID":"200148960","REF_FRAME":"TEME","MEAN_MOTION_DOT":"0.00011208","TIME_SYSTEM":"UTC","TLE_LINE2":"2 50842  53.2143 159.5207 0002149  33.7593 178.8953 15.08833310  3606","MEAN_MOTION":"15.08833310","DECAY_DATE":null,"TLE_LINE1":"1 50842U 22001AR  22090.58334491  .00011208  00000-0  72129-3 0  9990","PERIOD":"95.438","LAUNCH_DATE":"2022-01-06","MEAN_ELEMENT_THEORY":"SGP4","CENTER_NAME":"EARTH"},{"EPHEMERIS_TYPE":"0","PERIAPSIS":"538.302","BSTAR":"-0.00052382000000","ECCENTRICITY":"0.00020750","SEMIMAJOR_AXIS":"6917.872","COUNTRY_CODE":"US","INCLINATION":"53.2158","NORAD_CAT_ID":"50843","ARG_OF_PERICENTER":"34.1713","RA_OF_ASC_NODE":"159.5245","FILE":"3381849","OBJECT_ID":"2022-001AS","ELEMENT_SET_NO":"999","MEAN_ANOMALY":"58.4884","SITE":"AFETR","MEAN_MOTION_DDOT":"0.0000000000000","RCS_SIZE":"LARGE","EPOCH":"2022-03-31T14:00:01.000224","REV_AT_EPOCH":"361","MEAN_MOTION":"15.08842656","TLE_LINE2":"2 50843  53.2158 159.5245 0002075  34.1713  58.4884 15.08842656  3612","MEAN_MOTION_DOT":"-0.00008616","REF_FRAME":"TEME","TIME_SYSTEM":"UTC","GP_ID":"200147229","OBJECT_NAME":"STARLINK-3325","OBJECT_TYPE":"PAYLOAD","CLASSIFICATION_TYPE":"U","APOAPSIS":"541.173","CENTER_NAME":"EARTH","MEAN_ELEMENT_THEORY":"SGP4","LAUNCH_DATE":"2022-01-06","PERIOD":"95.437","TLE_LINE1":"1 50843U 22001AS  22090.58334491 -.00008616  00000-0 -52382-3 0  9991","DECAY_DATE":null},{"SEMIMAJOR_AXIS":"6917.875","COUNTRY_CODE":"US","INCLINATION":"53.2155","ECCENTRICITY":"0.00020450","EPHEMERIS_TYPE":"0","PERIAPSIS":"538.325","BSTAR":"0.00045542000000","OBJECT_ID":"2022-001AT","ELEMENT_SET_NO":"999","FILE":"3381849","RA_OF_ASC_NODE":"159.5069","ARG_OF_PERICENTER":"33.9017","NORAD_CAT_ID":"50844","MEAN_ANOMALY":"238.7228","SITE":"AFETR","REV_AT_EPOCH":"367","EPOCH":"2022-03-31T14:00:01.000224","RCS_SIZE":"LARGE","MEAN_MOTION_DDOT":"0.0000000000000","TLE_LINE2":"2 50844  53.2155 159.5069 0002045  33.9017 238.7228 15.08841903  3670","REF_FRAME":"TEME","MEAN_MOTION_DOT":"0.00006968","TIME_SYSTEM":"UTC","MEAN_MOTION":"15.08841903","APOAPSIS":"541.154","OBJECT_TYPE":"PAYLOAD","CLASSIFICATION_TYPE":"U","OBJECT_NAME":"STARLINK-3326","GP_ID":"200147973","PERIOD":"95.437","MEAN_ELEMENT_THEORY":"SGP4","LAUNCH_DATE":"2022-01-06","CENTER_NAME":"EARTH","DECAY_DATE":null,"TLE_LINE1":"1 50844U 22001AT  22090.58334491  .00006968  00000-0  45542-3 0  9998"},{"DECAY_DATE":null,"TLE_LINE1":"1 50845U 22001AU  22090.58334491  .00001979  00000-0  14240-3 0  9997","CENTER_NAME":"EARTH","PERIOD":"95.438","MEAN_ELEMENT_THEORY":"SGP4","LAUNCH_DATE":"2022-01-06","OBJECT_NAME":"STARLINK-3230","GP_ID":"200148231","APOAPSIS":"540.762","OBJECT_TYPE":"PAYLOAD","CLASSIFICATION_TYPE":"U","MEAN_MOTION":"15.08839476","TLE_LINE2":"2 50845  53.2163 159.5048 0001467  59.8096 332.8390 15.08839476  3610","MEAN_MOTION_DOT":"0.00001979","TIME_SYSTEM":"UTC","REF_FRAME":"TEME","RCS_SIZE":"LARGE","EPOCH":"2022-03-31T14:00:01.000224","MEAN_MOTION_DDOT":"0.0000000000000","REV_AT_EPOCH":"361","MEAN_ANOMALY":"332.8390","SITE":"AFETR","ARG_OF_PERICENTER":"59.8096","NORAD_CAT_ID":"50845","OBJECT_ID":"2022-001AU","ELEMENT_SET_NO":"999","RA_OF_ASC_NODE":"159.5048","FILE":"3381849","ECCENTRICITY":"0.00014670","EPHEMERIS_TYPE":"0","PERIAPSIS":"538.732","BSTAR":"0.00014240000000","SEMIMAJOR_AXIS":"6917.882","COUNTRY_CODE":"US","INCLINATION":"53.2163"}];
